NORAD_CAT_ID,OBJECT_NAME,OBJECT_TYPE,EPOCH,MEAN_MOTION,ECCENTRICITY,INCLINATION,RA_OF_ASC_NODE,ARG_OF_PERICENTER,MEAN_ANOMALY,BSTAR,MEAN_MOTION_DOT,MEAN_MOTION_DDOT,TLE_LINE0,TLE_LINE1,TLE_LINE2,SEMIMAJOR_AXIS,PERIOD,APOGEE,PERIGEE,DECAYED
55419.0,STARLINK-5629,PAYLOAD,2024-03-24 10:08:02,14.98323119,0.0002413,69.9997,87.8359,265.7798,94.3085,2.1714e-05,1.66e-06,0.0,0 STARLINK-5629,1 55419U 23014AE  24084.42225163  .00000166  00000-0  21714-4 0  9999,2 55419  69.9997  87.8359 0002413 265.7798  94.3085 14.98323119 63480,6950.214,96.107,573.756,570.402,0.0
55419.0,STARLINK-5629,PAYLOAD,2024-03-25 10:10:04,14.98320659,0.0002541,69.9993,85.311,268.4877,91.5991,4.163e-05,4.04e-06,0.0,0 STARLINK-5629,1 55419U 23014AE  24085.42365778  .00000404  00000-0  41630-4 0  9991,2 55419  69.9993  85.3110 0002541 268.4877  91.5991 14.98320659 63632,6950.222,96.108,573.853,570.321,0.0
55419.0,STARLINK-5629,PAYLOAD,2024-03-26 08:35:57,14.98322409,0.0002464,69.9994,82.9551,269.5262,90.5615,1.9665e-05,1.42e-06,0.0,0 STARLINK-5629,1 55419U 23014AE  24086.35829916  .00000142  00000-0  19665-4 0  9995,2 55419  69.9994  82.9551 0002464 269.5262  90.5615 14.98322409 64716,6950.216,96.107,573.794,570.369,0.0
55419.0,STARLINK-5629,PAYLOAD,2024-03-26 16:36:37,14.98325474,0.0002507,69.9994,82.1139,267.7124,92.3748,6.1587e-05,6.42e-06,0.0,0 STARLINK-5629,1 55419U 23014AE  24086.69209713  .00000642  00000-0  61587-4 0  9994,2 55419  69.9994  82.1139 0002507 267.7124  92.3748 14.98325474 63828,6950.207,96.107,573.814,570.329,0.0
55419.0,STARLINK-5629,PAYLOAD,2024-03-27 10:14:05,14.98333209,0.0002657,69.9989,80.2612,268.7535,91.332,0.00013263,1.49e-05,0.0,0 STARLINK-5629,1 55419U 23014AE  24087.42645032  .00001490  00000-0  13263-3 0  9993,2 55419  69.9989  80.2612 0002657 268.7535  91.3320 14.98333209 63932,6950.183,96.107,573.895,570.201,0.0
55419.0,STARLINK-5629,PAYLOAD,2024-03-27 16:38:37,14.98334349,0.0002579,69.9991,79.5882,263.1785,96.9081,6.9402e-05,7.35e-06,0.0,0 STARLINK-5629,1 55419U 23014AE  24087.69349061  .00000735  00000-0  69402-4 0  9993,2 55419  69.9991  79.5882 0002579 263.1785  96.9081 14.98334349 64914,6950.179,96.107,573.837,570.252,0.0
55419.0,STARLINK-5629,PAYLOAD,2024-03-28 08:39:58,14.98333883,0.0002731,69.999,77.9047,269.3267,90.7579,9.5949e-05,1.052e-05,0.0,0 STARLINK-5629,1 55419U 23014AE  24088.36108878  .00001052  00000-0  95949-4 0  9995,2 55419  69.9990  77.9047 0002731 269.3267  90.7579 14.98333883 65019,6950.181,96.107,573.944,570.148,0.0
55419.0,STARLINK-5629,PAYLOAD,2024-03-28 16:40:38,14.98322906,0.0002731,69.999,77.063,258.9486,101.1366,0.00012138,1.355e-05,0.0,0 STARLINK-5629,1 55419U 23014AE  24088.69489413  .00001355  00000-0  12138-3 0  9992,2 55419  69.9990  77.0630 0002731 258.9486 101.1366 14.98322906 64121,6950.215,96.107,573.978,570.182,0.0
55419.0,STARLINK-5629,PAYLOAD,2024-03-28 23:05:11,14.98329826,0.0002739,69.9991,76.3897,270.1392,89.9453,-5.1786e-05,-7.11e-06,0.0,0 STARLINK-5629,1 55419U 23014AE  24088.96193422 -.00000711  00000-0 -51786-4 0  9994,2 55419  69.9991  76.3897 0002739 270.1392  89.9453 14.98329826 65106,6950.193,96.107,573.962,570.155,0.0
55419.0,STARLINK-5629,PAYLOAD,2024-03-29 08:41:59,14.98328717,0.0002664,69.9993,75.3798,268.2049,91.8805,-4.36e-05,-6.13e-06,0.0,0 STARLINK-5629,1 55419U 23014AE  24089.36249450 -.00000613  00000-0 -43600-4 0  9999,2 55419  69.9993  75.3798 0002664 268.2049  91.8805 14.98328717 65168,6950.197,96.107,573.913,570.21,0.0
55419.0,STARLINK-5629,PAYLOAD,2024-03-29 21:31:03,14.98333541,0.0002802,69.9997,74.0329,270.1423,89.9415,-9.3387e-06,-2.04e-06,0.0,0 STARLINK-5629,1 55419U 23014AE  24089.89656959 -.00000204  00000-0 -93387-5 0  9997,2 55419  69.9997  74.0329 0002802 270.1423  89.9415 14.98333541 64301,6950.182,96.107,573.994,570.099,0.0
55419.0,STARLINK-5629,PAYLOAD,2024-03-30 08:43:59,14.98335163,0.0002796,69.9994,72.8547,270.2224,89.8615,1.2589e-06,-7.8e-07,0.0,0 STARLINK-5629,1 55419U 23014AE  24090.36388725 -.00000078  00000-0  12589-5 0  9997,2 55419  69.9994  72.8547 0002796 270.2224  89.8615 14.98335163 65313,6950.177,96.107,573.985,570.099,0.0
55419.0,STARLINK-5629,PAYLOAD,2024-03-30 21:33:04,14.98327702,0.0002829,69.9995,71.5082,270.2357,89.8477,5.6668e-05,5.83e-06,0.0,0 STARLINK-5629,1 55419U 23014AE  24090.89796986  .00000583  00000-0  56668-4 0  9992,2 55419  69.9995  71.5082 0002829 270.2357  89.8477 14.98327702 64458,6950.2,96.107,574.031,570.099,0.0
55419.0,STARLINK-5629,PAYLOAD,2024-03-30 23:09:12,14.98327757,0.0002827,69.9995,71.3398,270.222,89.8615,5.5815e-05,5.73e-06,0.0,0 STARLINK-5629,1 55419U 23014AE  24090.96472992  .00000573  00000-0  55815-4 0  9990,2 55419  69.9995  71.3398 0002827 270.2220  89.8615 14.98327757 65403,6950.2,96.107,574.03,570.1,0.0
55419.0,STARLINK-5629,PAYLOAD,2024-03-31 08:46:00,14.98329573,0.0002767,69.9997,70.3306,267.6321,92.4522,4.9849e-05,5.02e-06,0.0,0 STARLINK-5629,1 55419U 23014AE  24091.36528913  .00000502  00000-0  49849-4 0  9992,2 55419  69.9997  70.3306 0002767 267.6321  92.4522 14.98329573 65469,6950.194,96.107,573.982,570.136,0.0
55419.0,STARLINK-5629,PAYLOAD,2024-04-01 02:23:29,14.98334911,0.0002816,69.9996,68.4784,270.6575,89.4262,2.6485e-05,2.23e-06,0.0,0 STARLINK-5629,1 55419U 23014AE  24092.09964508  .00000223  00000-0  26485-4 0  9998,2 55419  69.9996  68.4784 0002816 270.6575  89.4262 14.98334911 64633,6950.178,96.107,574.0,570.086,0.0
55419.0,STARLINK-5629,PAYLOAD,2024-04-01 08:48:01,14.98336376,0.0002768,69.9998,67.8054,269.9243,90.1599,5.5636e-05,5.71e-06,0.0,0 STARLINK-5629,1 55419U 23014AE  24092.36668254  .00000571  00000-0  55636-4 0  9993,2 55419  69.9998  67.8054 0002768 269.9243  90.1599 14.98336376 65615,6950.173,96.107,573.962,570.114,0.0
55419.0,STARLINK-5629,PAYLOAD,2024-04-02 04:01:38,14.98350076,0.0002822,70.0,65.7861,268.5313,91.5523,-0.00036776,-4.48e-05,0.0,0 STARLINK-5629,1 55419U 23014AE  24093.16780361 -.00004480  00000-0 -36776-3 0  9994,2 55419  70.0000  65.7861 0002822 268.5313  91.5523 14.98350076 64792,6950.131,96.106,573.957,570.034,0.0
55419.0,STARLINK-5629,PAYLOAD,2024-04-02 07:13:54,14.98336655,0.0002731,70.0001,65.4495,268.8247,91.2599,-0.00013544,-1.709e-05,0.0,0 STARLINK-5629,1 55419U 23014AE  24093.30132570 -.00001709  00000-0 -13544-3 0  9992,2 55419  70.0001  65.4495 0002731 268.8247  91.2599 14.98336655 64811,6950.172,96.107,573.935,570.139,0.0
55419.0,STARLINK-5629,PAYLOAD,2024-04-02 21:39:07,14.9832872,0.0002703,70.0004,63.9346,267.0516,93.0334,-6.2924e-05,-8.44e-06,0.0,0 STARLINK-5629,1 55419U 23014AE  24093.90216970 -.00000844  00000-0 -62924-4 0  9991,2 55419  70.0004  63.9346 0002703 267.0516  93.0334 14.98328720 64902,6950.197,96.107,573.94,570.183,0.0
55419.0,STARLINK-5629,PAYLOAD,2024-04-03 07:15:55,14.98327656,0.0002704,70.0004,62.9246,266.7139,93.3711,-6.4803e-05,-8.66e-06,0.0,0 STARLINK-5629,1 55419U 23014AE  24094.30273079 -.00000866  00000-0 -64803-4 0  9991,2 55419  70.0004  62.9246 0002704 266.7139  93.3711 14.98327656 65908,6950.2,96.107,573.944,570.186,0.0
55419.0,STARLINK-5629,PAYLOAD,2024-04-03 21:41:08,14.98325898,0.0002849,69.9998,61.4094,269.7537,90.3295,2.2291e-05,1.73e-06,0.0,0 STARLINK-5629,1 55419U 23014AE  24094.90357016  .00000173  00000-0  22291-4 0  9995,2 55419  69.9998  61.4094 0002849 269.7537  90.3295 14.98325898 65053,6950.206,96.107,574.051,570.09,0.0
55419.0,STARLINK-5629,PAYLOAD,2024-04-04 07:17:56,14.98328004,0.000284,70.0,60.399,269.3678,90.7155,3.0986e-05,2.77e-06,0.0,0 STARLINK-5629,1 55419U 23014AE  24095.30412919  .00000277  00000-0  30986-4 0  9999,2 55419  70.0000  60.3990 0002840 269.3678  90.7155 14.98328004 66058,6950.199,96.107,574.038,570.09,0.0
55419.0,STARLINK-5629,PAYLOAD,2024-04-04 21:43:09,14.98328792,0.0002891,69.9999,58.8837,269.2091,90.8737,8.9938e-05,9.8e-06,0.0,0 STARLINK-5629,1 55419U 23014AE  24095.90496722  .00000980  00000-0  89938-4 0  9991,2 55419  69.9999  58.8837 0002891 269.2091  90.8737 14.98328792 66149,6950.197,96.107,574.071,570.052,0.0
55419.0,STARLINK-5629,PAYLOAD,2024-04-05 04:07:41,14.98333135,0.0002912,70.0,58.2106,269.386,90.6966,9.7208e-05,1.067e-05,0.0,0 STARLINK-5629,1 55419U 23014AE  24096.17200424  .00001067  00000-0  97208-4 0  9999,2 55419  70.0000  58.2106 0002912 269.3860  90.6966 14.98333135 65246,6950.183,96.107,574.072,570.024,0.0
55419.0,STARLINK-5629,PAYLOAD,2024-04-05 07:19:57,14.98333986,0.0002893,70.0,57.8739,269.3577,90.7251,0.00010374,1.145e-05,0.0,0 STARLINK-5629,1 55419U 23014AE  24096.30552323  .00001145  00000-0  10374-3 0  9997,2 55419  70.0000  57.8739 0002893 269.3577  90.7251 14.98333986 66205,6950.181,96.107,574.056,570.035,0.0
55419.0,STARLINK-5629,PAYLOAD,2024-04-05 21:45:10,14.98330433,0.0002779,70.0014,56.3592,269.2877,90.7964,4.8663e-05,4.88e-06,0.0,0 STARLINK-5629,1 55419U 23014AE  24096.90636631  .00000488  00000-0  48663-4 0  9990,2 55419  70.0014  56.3592 0002779 269.2877  90.7964 14.98330433 66290,6950.192,96.107,573.988,570.125,0.0
55419.0,STARLINK-5629,PAYLOAD,2024-04-06 04:09:42,14.98330898,0.0002888,70.0003,55.6859,269.6497,90.4331,3.2716e-05,2.97e-06,0.0,0 STARLINK-5629,1 55419U 23014AE  24097.17340625  .00000297  00000-0  32716-4 0  9995,2 55419  70.0003  55.6859 0002888 269.6497  90.4331 14.98330898 65399,6950.19,96.107,574.062,570.048,0.0
55419.0,STARLINK-5629,PAYLOAD,2024-04-06 07:21:58,14.98330421,0.0002904,70.0004,55.3493,269.6922,90.3905,2.6081e-05,2.18e-06,0.0,0 STARLINK-5629,1 55419U 23014AE  24097.30692662  .00000218  00000-0  26081-4 0  9992,2 55419  70.0004  55.3493 0002904 269.6922  90.3905 14.98330421 66358,6950.192,96.107,574.075,570.038,0.0
55419.0,STARLINK-5629,PAYLOAD,2024-04-06 20:11:03,14.98300342,0.000281,70.0007,54.0037,266.6118,93.472,0.00048526,5.697e-05,0.0,0 STARLINK-5629,1 55419U 23014AE  24097.84101150  .00005697  00000-0  48526-3 0  9991,2 55419  70.0007  54.0037 0002810 266.6118  93.4720 14.98300342 65493,6950.285,96.109,574.103,570.197,0.0
